{
  "norad_id": 65507,
  "name": "STARLINK-35163",
  "history": [
    {
      "epoch": "2026-03-28T13:05:07.794240",
      "apogee_km": 475.9974467895254,
      "perigee_km": 474.3457994113587,
      "latitude_deg": 48.94126479039189,
      "longitude_deg": 63.041993599850684,
      "semi_major_axis_km": 6853.308623100442,
      "eccentricity": 0.0001205,
      "inclination_deg": 53.1581,
      "raan_deg": 183.6489,
      "arg_perigee_deg": 81.4047,
      "mean_anomaly_deg": 278.7091,
      "mean_motion_rev_day": 15.30214551
    }
  ]
}